*******************************************************************************
 Revised: April 12, 2021                Venus                           299 / 2
 
 PHYSICAL DATA (updated 2020-Oct-19):
  Vol. Mean Radius (km) =  6051.84+-0.01 Density (g/cm^3)      =  5.204
  Mass x10^23 (kg)      =    48.685      Volume (x10^10 km^3)  = 92.843
  Sidereal rot. period  =   243.018484 d Sid. Rot. Rate (rad/s)= -0.00000029924
  Mean solar day        =   116.7490 d   Equ. gravity  m/s^2   =  8.870
  Mom. of Inertia       =     0.33       Core radius (km)      = ~3200
  Geometric Albedo      =     0.65       Potential Love # k2   = ~0.25
  GM (km^3/s^2)         = 324858.592     Equatorial Radius, Re = 6051.893 km
  GM 1-sigma (km^3/s^2) =    +-0.006     Mass ratio (Sun/Venus)= 408523.72
  Atmos. pressure (bar) =  90            Max. angular diam.    =   60.2"
  Mean Temperature (K)  = 735            Visual mag. V(1,0)    =   -4.40
  Obliquity to orbit    = 177.3 deg      Hill's sphere rad.,Rp =  167.1
  Sidereal orb. per., y =   0.61519726   Orbit speed, km/s     =   35.021
  Sidereal orb. per., d = 224.70079922   Escape speed, km/s    =   10.361
                                 Perihelion  Aphelion    Mean
  Solar Constant (W/m^2)         2759         2614       2650
  Maximum Planetary IR (W/m^2)    153         153         153
  Minimum Planetary IR (W/m^2)    153         153         153
*******************************************************************************


*******************************************************************************
Ephemeris / WWW_USER Sun Nov 14 18:23:10 2021 Pasadena, USA      / Horizons
*******************************************************************************
Target body name: Venus (299)                     {source: DE441}
Center body name: Sun (10)                        {source: DE441}
Center-site name: BODY CENTER
*******************************************************************************
Start time      : A.D. 1970-Jan-01 00:00:00.0000 TDB
Stop  time      : A.D. 2040-Jan-01 00:00:00.0000 TDB
Step-size       : 11520 minutes
*******************************************************************************
Center geodetic : 0.00000000,0.00000000,0.0000000 {E-lon(deg),Lat(deg),Alt(km)}
Center cylindric: 0.00000000,0.00000000,0.0000000 {E-lon(deg),Dxy(km),Dz(km)}
Center radii    : 696000.0 x 696000.0 x 696000.0 k{Equator, meridian, pole}    
Output units    : AU-D
Output type     : GEOMETRIC cartesian states
Output format   : 2 (position and velocity)
Reference frame : ICRF
*******************************************************************************
JDTDB
   X     Y     Z
   VX    VY    VZ
*******************************************************************************
$$SOE
2460915.500000000 = A.D. 2025-Aug-28 00:00:00.0000 TDB 
 X = 1.974948964495392E-01 Y = 6.366227753398448E-01 Z = 2.739672616663527E-01
 VX=-1.952011403325446E-02 VY= 4.518286227883330E-03 VZ= 3.268069724483814E-03
2460923.500000000 = A.D. 2025-Sep-05 00:00:00.0000 TDB 
 X = 3.766824737885625E-02 Y = 6.564059775808735E-01 Z = 2.929808093438735E-01
 VX=-2.026805727297817E-02 VY= 4.041752713895423E-04 VZ= 1.464155413816280E-03
2460931.500000000 = A.D. 2025-Sep-13 00:00:00.0000 TDB 
 X =-1.240587231241359E-01 Y = 6.429998536946421E-01 Z = 2.971803213941124E-01
 VX=-1.999206924678727E-02 VY=-3.743433460599736E-03 VZ=-4.196125312253079E-04
2460939.500000000 = A.D. 2025-Sep-21 00:00:00.0000 TDB 
 X =-2.794923338120782E-01 Y = 5.969922569267708E-01 Z = 2.863119302115033E-01
 VX=-1.870071172806255E-02 VY=-7.710842329100452E-03 VZ=-2.286534350648367E-03
2460947.500000000 = A.D. 2025-Sep-29 00:00:00.0000 TDB 
 X =-4.207257866237244E-01 Y = 5.206580966476714E-01 Z = 2.608990468700475E-01
 VX=-1.645696605149615E-02 VY=-1.129201426403100E-02 VZ=-4.039914495323769E-03
2460955.500000000 = A.D. 2025-Oct-07 00:00:00.0000 TDB 
 X =-5.405655433917874E-01 Y = 4.178498432264781E-01 Z = 2.222200662997773E-01
 VX=-1.337540070302793E-02 VY=-1.430053139934597E-02 VZ=-5.588621790109739E-03
2460963.500000000 = A.D. 2025-Oct-15 00:00:00.0000 TDB 
 X =-6.329211723537765E-01 Y = 2.937959007729652E-01 Z = 1.722423047845171E-01
 VX=-9.615912095109624E-03 VY=-1.658051150252965E-02 VZ=-6.852397514495230E-03
2460971.500000000 = A.D. 2025-Oct-23 00:00:00.0000 TDB 
 X =-6.931327118990469E-01 Y = 1.548188390635443E-01 Z = 1.135159232281603E-01
 VX=-5.374462322149185E-03 VY=-1.801559021464852E-02 VZ=-7.766483157930505E-03
2460979.500000000 = A.D. 2025-Oct-31 00:00:00.0000 TDB 
 X =-7.182142988784098E-01 Y = 7.991938480835204E-03 Z = 4.903479530052361E-02
 VX=-8.715520697604985E-04 VY=-1.853526427896886E-02 VZ=-8.285203978851815E-03
2460987.500000000 = A.D. 2025-Nov-08 00:00:00.0000 TDB 
 X =-7.069996464995028E-01 Y =-1.392429339419054E-01 Z =-1.792623402125899E-02
 VX= 3.660620595509036E-03 VY=-1.811817129360949E-02 VZ=-8.384257230372951E-03
2460995.500000000 = A.D. 2025-Nov-16 00:00:00.0000 TDB 
 X =-6.601829681083476E-01 Y =-2.794709864381380E-01 Z =-8.398679654682288E-02
 VX= 7.991287233512851E-03 VY=-1.679220448984055E-02 VZ=-8.061594336890130E-03
2461003.500000000 = A.D. 2025-Nov-24 00:00:00.0000 TDB 
 X =-5.802570138257930E-01 Y =-4.056890179349669E-01 Z =-1.458379428016439E-01
 VX= 1.190355395424251E-02 VY=-1.463166843109158E-02 VZ=-7.336928356660306E-03
2461011.500000000 = A.D. 2025-Dec-02 00:00:00.0000 TDB 
 X =-4.713570100706399E-01 Y =-5.116567811116803E-01 Z =-2.004101183093069E-01
 VX= 1.520536624183562E-02 VY=-1.175192663773200E-02 VZ=-6.250018998595368E-03
2461019.500000000 = A.D. 2025-Dec-10 00:00:00.0000 TDB 
 X =-3.390247352488361E-01 Y =-5.921974950633685E-01 Z =-2.450233098625847E-01
 VX= 1.773844139952807E-02 VY=-8.302149907975252E-03 VZ=-4.857974748205602E-03
2461027.500000000 = A.D. 2025-Dec-18 00:00:00.0000 TDB 
 X =-1.899102899993914E-01 Y =-6.434349158696034E-01 Z =-2.775125888478268E-01
 VX= 1.938488455350754E-02 VY=-4.456813322439082E-03 VZ=-3.231845694087543E-03
2461035.500000000 = A.D. 2025-Dec-26 00:00:00.0000 TDB 
 X =-3.143049958888669E-02 Y =-6.629594333499983E-01 Z =-2.963244631832617E-01
 VX= 2.007141948616217E-02 VY=-4.065525098776600E-04 VZ=-1.452776688213556E-03
2461043.500000000 = A.D. 2026-Jan-03 00:00:00.0000 TDB 
 X = 1.285973182999396E-01 Y =-6.499202464783544E-01 Z =-3.005815242204812E-01
 VX= 1.977134727269551E-02 VY= 3.651095962942665E-03 VZ= 3.920354067807088E-04
2461051.500000000 = A.D. 2026-Jan-11 00:00:00.0000 TDB 
 X = 2.823288912424382E-01 Y =-6.050443567257204E-01 Z =-2.901146255747947E-01
 VX= 1.850445597970513E-02 VY= 7.520675699351037E-03 VZ= 2.213388686673158E-03
2461059.500000000 = A.D. 2026-Jan-19 00:00:00.0000 TDB 
 X = 4.222584749150822E-01 Y =-5.305857650531138E-01 Z =-2.654631458778052E-01
 VX= 1.633514059180580E-02 VY= 1.101724252263608E-02 VZ= 3.923989366563068E-03
2461067.500000000 = A.D. 2026-Jan-27 00:00:00.0000 TDB 
 X = 5.415629671823853E-01 Y =-4.302100079076172E-01 Z =-2.278448032536479E-01
 VX= 1.336897862987075E-02 VY= 1.397407544403318E-02 VZ= 5.442138305845843E-03
2461075.500000000 = A.D. 2026-Feb-04 00:00:00.0000 TDB 
 X = 6.344131313617214E-01 Y =-3.088202647846056E-01 Z =-1.790970968287444E-01
 VX= 9.747960070967140E-03 VY= 1.624955808019564E-02 VZ= 6.695129185667781E-03
2461083.500000000 = A.D. 2026-Feb-12 00:00:00.0000 TDB 
 X = 6.962417699021242E-01 Y =-1.723320086637256E-01 Z =-1.215928731833431E-01
 VX= 5.644515101077926E-03 VY= 1.773314746288424E-02 VZ= 7.622311632043181E-03
2461091.500000000 = A.D. 2026-Feb-20 00:00:00.0000 TDB 
 X = 7.239596615703338E-01 Y =-2.740387900949542E-02 Z =-5.813289103565686E-02
 VX= 1.254440976586448E-03 VY= 1.835032975301771E-02 VZ= 8.177768860910279E-03
2461099.500000000 = A.D. 2026-Feb-28 00:00:00.0000 TDB 
 X = 7.161107548245372E-01 Y = 1.188665835876661E-01 Z = 8.181271963176124E-03
 VX=-3.211198724611914E-03 VY= 1.806642115398177E-02 VZ= 8.332540969468970E-03
2461107.500000000 = A.D. 2026-Mar-08 00:00:00.0000 TDB 
 X = 6.729587533971843E-01 Y = 2.592723453424560E-01 Z = 7.408996828151990E-02
 VX=-7.535102685452729E-03 VY= 1.688901484360502E-02 VZ= 8.076297082781046E-03
2461115.500000000 = A.D. 2026-Mar-16 00:00:00.0000 TDB 
 X = 5.964983246518923E-01 Y = 3.868396600236490E-01 Z = 1.363290130077208E-01
 VX=-1.150351165683547E-02 VY= 1.486883607704942E-02 VZ= 7.418338463239395E-03
2461123.500000000 = A.D. 2026-Mar-24 00:00:00.0000 TDB 
 X = 4.903859146458237E-01 Y = 4.951704678629845E-01 Z = 1.917881295164407E-01
 VX=-1.491647173823765E-02 VY= 1.209874745444361E-02 VZ= 6.387800314430962E-03
2461131.500000000 = A.D. 2026-Apr-01 00:00:00.0000 TDB 
 X = 3.597878458908002E-01 Y = 5.787686056097252E-01 Z = 2.376673449080464E-01
 VX=-1.759816822209364E-02 VY= 8.710661750836939E-03 VZ= 5.032916536407087E-03
2461139.500000000 = A.D. 2026-Apr-09 00:00:00.0000 TDB 
 X = 2.111472953806424E-01 Y = 6.333324079542303E-01 Z = 2.716233950996165E-01
 VX=-1.940676682081351E-02 VY= 4.870213125534363E-03 VZ= 3.419244553705444E-03
2461147.500000000 = A.D. 2026-Apr-17 00:00:00.0000 TDB 
 X = 5.187675283833242E-02 Y = 6.559956660703293E-01 Z = 2.918976066896682E-01
 VX=-2.024308165275126E-02 VY= 7.691921357384853E-04 VZ= 1.626809673180962E-03
2461155.500000000 = A.D. 2026-Apr-25 00:00:00.0000 TDB 
 X =-1.100117081689516E-01 Y = 6.454997621394439E-01 Z = 2.974167442656454E-01
 VX=-2.005733033971722E-02 VY=-3.384039462069679E-03 VZ=-2.537806225710323E-04
2461163.500000000 = A.D. 2026-May-03 00:00:00.0000 TDB 
 X =-2.663201619462124E-01 Y = 6.022824899761766E-01 Z = 2.878591525918795E-01
 VX=-1.885327070738056E-02 VY=-7.375694892094239E-03 VZ=-2.126090451133538E-03
2461171.500000000 = A.D. 2026-May-11 00:00:00.0000 TDB 
 X =-4.090992462800487E-01 Y = 5.284737073262150E-01 Z = 2.636802839726283E-01
 VX=-1.668916013939745E-02 VY=-1.099857513793920E-02 VZ=-3.893200298616499E-03
